CCSDS_OMM_VERS = 2.0
CREATION_DATE  = 
ORIGINATOR     = 

OBJECT_NAME    = STARLINK-36197
OBJECT_ID      = 2025-304P
CENTER_NAME    = EARTH
REF_FRAME      = TEME
TIME_SYSTEM    = UTC
MEAN_ELEMENT_THEORY = SGP/SGP4

EPOCH          = 2026-01-02T22:42:56.492352
MEAN_MOTION    = 15.61788504
ECCENTRICITY   = .0002427
INCLINATION    = 70.0018
RA_OF_ASC_NODE = 347.5670
ARG_OF_PERICENTER = 239.5021
MEAN_ANOMALY   = 120.5932

EPHEMERIS_TYPE = 0
CLASSIFICATION_TYPE = U
NORAD_CAT_ID   = 67205
ELEMENT_SET_NO = 999
REV_AT_EPOCH   = 382
BSTAR          = -.10455E-1
MEAN_MOTION_DOT = -.833441E-2
MEAN_MOTION_DDOT = 0

CCSDS_OMM_VERS = 2.0
CREATION_DATE  = 
ORIGINATOR     = 

OBJECT_NAME    = STARLINK-36056
OBJECT_ID      = 2025-304Q
CENTER_NAME    = EARTH
REF_FRAME      = TEME
TIME_SYSTEM    = UTC
MEAN_ELEMENT_THEORY = SGP/SGP4

EPOCH          = 2026-01-03T11:00:35.061696
MEAN_MOTION    = 15.59849559
ECCENTRICITY   = .000254
INCLINATION    = 69.9992
RA_OF_ASC_NODE = 346.1410
ARG_OF_PERICENTER = 279.4851
MEAN_ANOMALY   = 80.6052

EPHEMERIS_TYPE = 0
CLASSIFICATION_TYPE = U
NORAD_CAT_ID   = 67206
ELEMENT_SET_NO = 999
REV_AT_EPOCH   = 390
BSTAR          = -.27641E-1
MEAN_MOTION_DOT = -.1963765E-1
MEAN_MOTION_DDOT = 0

CCSDS_OMM_VERS = 2.0
CREATION_DATE  = 
ORIGINATOR     = 

OBJECT_NAME    = STARLINK-36225
OBJECT_ID      = 2025-304R
CENTER_NAME    = EARTH
REF_FRAME      = TEME
TIME_SYSTEM    = UTC
MEAN_ELEMENT_THEORY = SGP/SGP4

EPOCH          = 2026-01-03T00:14:12.775776
MEAN_MOTION    = 15.61638761
ECCENTRICITY   = .00036056
INCLINATION    = 70.0002
RA_OF_ASC_NODE = 347.3859
ARG_OF_PERICENTER = 266.8928
MEAN_ANOMALY   = 93.1851

EPHEMERIS_TYPE = 0
CLASSIFICATION_TYPE = U
NORAD_CAT_ID   = 67207
ELEMENT_SET_NO = 999
REV_AT_EPOCH   = 386
BSTAR          = -.79512153E-2
MEAN_MOTION_DOT = -.636057E-2
MEAN_MOTION_DDOT = 0

CCSDS_OMM_VERS = 2.0
CREATION_DATE  = 
ORIGINATOR     = 

OBJECT_NAME    = STARLINK-36265
OBJECT_ID      = 2025-304S
CENTER_NAME    = EARTH
REF_FRAME      = TEME
TIME_SYSTEM    = UTC
MEAN_ELEMENT_THEORY = SGP/SGP4

EPOCH          = 2026-01-03T10:59:38.955264
MEAN_MOTION    = 15.61316146
ECCENTRICITY   = .0011027
INCLINATION    = 70.0001
RA_OF_ASC_NODE = 346.1401
ARG_OF_PERICENTER = 311.1083
MEAN_ANOMALY   = 48.9155

EPHEMERIS_TYPE = 0
CLASSIFICATION_TYPE = U
NORAD_CAT_ID   = 67208
ELEMENT_SET_NO = 999
REV_AT_EPOCH   = 393
BSTAR          = .25039E-2
MEAN_MOTION_DOT = .219749E-2
MEAN_MOTION_DDOT = 0

CCSDS_OMM_VERS = 2.0
CREATION_DATE  = 
ORIGINATOR     = 

OBJECT_NAME    = STARLINK-36226
OBJECT_ID      = 2025-304T
CENTER_NAME    = EARTH
REF_FRAME      = TEME
TIME_SYSTEM    = UTC
MEAN_ELEMENT_THEORY = SGP/SGP4

EPOCH          = 2026-01-02T22:40:58.719648
MEAN_MOTION    = 15.61777599
ECCENTRICITY   = .0002262
INCLINATION    = 70.0016
RA_OF_ASC_NODE = 347.5619
ARG_OF_PERICENTER = 243.3126
MEAN_ANOMALY   = 116.7834

EPHEMERIS_TYPE = 0
CLASSIFICATION_TYPE = U
NORAD_CAT_ID   = 67209
ELEMENT_SET_NO = 999
REV_AT_EPOCH   = 385
BSTAR          = -.10812E-1
MEAN_MOTION_DOT = -.859128E-2
MEAN_MOTION_DDOT = 0

CCSDS_OMM_VERS = 2.0
CREATION_DATE  = 
ORIGINATOR     = 

OBJECT_NAME    = STARLINK-36173
OBJECT_ID      = 2025-304U
CENTER_NAME    = EARTH
REF_FRAME      = TEME
TIME_SYSTEM    = UTC
MEAN_ELEMENT_THEORY = SGP/SGP4

EPOCH          = 2026-01-03T09:26:11.692896
MEAN_MOTION    = 15.60147702
ECCENTRICITY   = .0005727
INCLINATION    = 70.0012
RA_OF_ASC_NODE = 346.3166
ARG_OF_PERICENTER = 305.6839
MEAN_ANOMALY   = 54.3818

EPHEMERIS_TYPE = 0
CLASSIFICATION_TYPE = U
NORAD_CAT_ID   = 67210
ELEMENT_SET_NO = 999
REV_AT_EPOCH   = 392
BSTAR          = -.27004E-1
MEAN_MOTION_DOT = -.1946345E-1
MEAN_MOTION_DDOT = 0

CCSDS_OMM_VERS = 2.0
CREATION_DATE  = 
ORIGINATOR     = 

OBJECT_NAME    = STARLINK-36280
OBJECT_ID      = 2025-304V
CENTER_NAME    = EARTH
REF_FRAME      = TEME
TIME_SYSTEM    = UTC
MEAN_ELEMENT_THEORY = SGP/SGP4

EPOCH          = 2026-01-02T22:39:58.993920
MEAN_MOTION    = 15.62032218
ECCENTRICITY   = .000412
INCLINATION    = 69.9984
RA_OF_ASC_NODE = 347.5553
ARG_OF_PERICENTER = 169.8644
MEAN_ANOMALY   = 190.2631

EPHEMERIS_TYPE = 0
CLASSIFICATION_TYPE = U
NORAD_CAT_ID   = 67211
ELEMENT_SET_NO = 999
REV_AT_EPOCH   = 385
BSTAR          = -.5015E-2
MEAN_MOTION_DOT = -.418346E-2
MEAN_MOTION_DDOT = 0

CCSDS_OMM_VERS = 2.0
CREATION_DATE  = 
ORIGINATOR     = 

OBJECT_NAME    = STARLINK-36213
OBJECT_ID      = 2025-304W
CENTER_NAME    = EARTH
REF_FRAME      = TEME
TIME_SYSTEM    = UTC
MEAN_ELEMENT_THEORY = SGP/SGP4

EPOCH          = 2026-01-03T10:57:36.518688
MEAN_MOTION    = 15.59636025
ECCENTRICITY   = .000516
INCLINATION    = 70.0013
RA_OF_ASC_NODE = 346.1335
ARG_OF_PERICENTER = 280.5011
MEAN_ANOMALY   = 79.5598

EPHEMERIS_TYPE = 0
CLASSIFICATION_TYPE = U
NORAD_CAT_ID   = 67212
ELEMENT_SET_NO = 999
REV_AT_EPOCH   = 393
BSTAR          = -.18591E-1
MEAN_MOTION_DOT = -.1345682E-1
MEAN_MOTION_DDOT = 0

CCSDS_OMM_VERS = 2.0
CREATION_DATE  = 
ORIGINATOR     = 

OBJECT_NAME    = STARLINK-36199
OBJECT_ID      = 2025-304X
CENTER_NAME    = EARTH
REF_FRAME      = TEME
TIME_SYSTEM    = UTC
MEAN_ELEMENT_THEORY = SGP/SGP4

EPOCH          = 2026-01-03T00:08:56.718528
MEAN_MOTION    = 15.69173707
ECCENTRICITY   = .00313427
INCLINATION    = 69.9999
RA_OF_ASC_NODE = 347.3713
ARG_OF_PERICENTER = 230.7906
MEAN_ANOMALY   = 129.0506

EPHEMERIS_TYPE = 0
CLASSIFICATION_TYPE = U
NORAD_CAT_ID   = 67213
ELEMENT_SET_NO = 999
REV_AT_EPOCH   = 386
BSTAR          = .17696206E-1
MEAN_MOTION_DOT = .2447114E-1
MEAN_MOTION_DDOT = 0

CCSDS_OMM_VERS = 2.0
CREATION_DATE  = 
ORIGINATOR     = 

OBJECT_NAME    = STARLINK-36203
OBJECT_ID      = 2025-304Y
CENTER_NAME    = EARTH
REF_FRAME      = TEME
TIME_SYSTEM    = UTC
MEAN_ELEMENT_THEORY = SGP/SGP4

EPOCH          = 2026-01-03T10:56:35.939328
MEAN_MOTION    = 15.59661723
ECCENTRICITY   = .0004485
INCLINATION    = 70.0003
RA_OF_ASC_NODE = 346.1319
ARG_OF_PERICENTER = 282.5392
MEAN_ANOMALY   = 77.5297

EPHEMERIS_TYPE = 0
CLASSIFICATION_TYPE = U
NORAD_CAT_ID   = 67214
ELEMENT_SET_NO = 999
REV_AT_EPOCH   = 393
BSTAR          = -.26968E-1
MEAN_MOTION_DOT = -.1910986E-1
MEAN_MOTION_DDOT = 0

CCSDS_OMM_VERS = 2.0
CREATION_DATE  = 
ORIGINATOR     = 

OBJECT_NAME    = STARLINK-36221
OBJECT_ID      = 2025-304Z
CENTER_NAME    = EARTH
REF_FRAME      = TEME
TIME_SYSTEM    = UTC
MEAN_ELEMENT_THEORY = SGP/SGP4

EPOCH          = 2026-01-03T01:42:05.454144
MEAN_MOTION    = 15.64754392
ECCENTRICITY   = .00083999
INCLINATION    = 69.9999
RA_OF_ASC_NODE = 347.1958
ARG_OF_PERICENTER = 292.1240
MEAN_ANOMALY   = 67.9061

EPHEMERIS_TYPE = 0
CLASSIFICATION_TYPE = U
NORAD_CAT_ID   = 67215
ELEMENT_SET_NO = 999
REV_AT_EPOCH   = 387
BSTAR          = .4528045E-1
MEAN_MOTION_DOT = .5263592E-1
MEAN_MOTION_DDOT = 0

CCSDS_OMM_VERS = 2.0
CREATION_DATE  = 
ORIGINATOR     = 

OBJECT_NAME    = STARLINK-36212
OBJECT_ID      = 2025-304AA
CENTER_NAME    = EARTH
REF_FRAME      = TEME
TIME_SYSTEM    = UTC
MEAN_ELEMENT_THEORY = SGP/SGP4

EPOCH          = 2026-01-03T07:50:23.843904
MEAN_MOTION    = 15.60730415
ECCENTRICITY   = .0005884
INCLINATION    = 69.9998
RA_OF_ASC_NODE = 346.4828
ARG_OF_PERICENTER = 231.3386
MEAN_ANOMALY   = 128.7279

EPHEMERIS_TYPE = 0
CLASSIFICATION_TYPE = U
NORAD_CAT_ID   = 67216
ELEMENT_SET_NO = 999
REV_AT_EPOCH   = 391
BSTAR          = -.31647E-1
MEAN_MOTION_DOT = -.2327924E-1
MEAN_MOTION_DDOT = 0

